SNAP-3 JIMI             
1 40975U 15058M   26095.07716179  .00007987  00000+0  55939-3 0  9998
2 40975  64.7640  90.9422 0104784  85.4390 275.8687 15.01476570103242
PROPCUBE 1 (FLORA)      
1 40976U 15058N   26095.18976106  .00003310  00000+0  31716-3 0  9992
2 40976  64.7743 161.3998 0129283  89.5718 272.0206 14.88830853105394
SINOD-D 3               
1 40977U 15058P   26095.19769000  .00004280  00000+0  36865-3 0  9994
2 40977  64.7714 143.6403 0117683  87.2910 274.1667 14.93464807103858
HORYU-4                 
1 41340U 16012D   26095.11559314  .00133296  00000+0  11041-2 0  9995
2 41340  30.9904 242.4599 0006114  40.4002 319.7106 15.68698457559258
RAVAN                   
1 41849U 16067B   26095.22327640  .00051625  00000+0  96409-3 0  9993
2 41849  97.9983 336.7232 0004255 246.0501 114.0302 15.48599060516384
CELTEE 1                
1 41850U 16067C   26095.03606140  .00008251  00000+0  39820-3 0  9990
2 41850  98.0770 316.6127 0002238 107.2675 252.8803 15.18967047514770
OPTICUBE 04             
1 41851U 16067D   26095.29464509  .00003284  00000+0  20965-3 0  9991
2 41851  98.0781 303.7558 0015873   9.9269 350.2269 15.09357746514176
AEROCUBE 8D             
1 41852U 16067E   26095.13780920  .00010182  00000+0  43106-3 0  9990
2 41852  98.0783 319.7684 0004342  46.7783 313.3814 15.23393442514945
AEROCUBE 8C             
1 41853U 16067F   26095.17420337  .00010777  00000+0  45287-3 0  9990
2 41853  98.0654 317.1311 0004403 326.2089  33.8865 15.23625388514942
CORVUS BC2              
1 42846U 17042X   26095.17680922  .00005228  00000+0  36356-3 0  9997
2 42846  97.3995 259.4197 0013233  10.0688 350.0802 15.05842703476077
CORVUS BC1              
1 42847U 17042Y   26094.98044666  .00004414  00000+0  30630-3 0  9990
2 42847  97.4029 259.9962 0011376 347.7669  12.3280 15.06026567476078
MAKERSAT 0              
1 43016U 17073D   26094.62883973  .00030693  00000+0  89224-3 0  9997
2 43016  97.4725 336.7098 0114330 173.2922 186.9882 15.29050188455212
SIRION PATHFINDER-2     
1 43759U 18099B   26095.09374974  .00007959  00000+0  44290-3 0  9991
2 43759  97.4330 145.8955 0008841 183.3302 176.7873 15.13880959401568
CORVUS BC4              
1 43767U 18099K   26094.60587906  .00008000  00000+0  47045-3 0  9996
2 43767  97.4148 139.7411 0006940 251.0597 108.9882 15.11906352401280
M2 PATHFINDER           
1 45727U 20037E   26095.28686355  .00003946  00000+0  28704-3 0  9997
2 45727  97.8155 285.7031 0012312  43.8552 316.3648 15.04354009314532
NETSAT-4                
1 46504U 20068U   26094.56652426  .00024658  00000+0  58947-3 0  9992
2 46504  97.8634  97.0289 0004748 202.4936 157.6102 15.41478677304427
