[{"OBJECT_NAME":"SNAP-3 JIMI","OBJECT_ID":"2015-058M","EPOCH":"2026-04-05T01:51:06.778656","MEAN_MOTION":15.0147657,"ECCENTRICITY":0.01047845,"INCLINATION":64.764,"RA_OF_ASC_NODE":90.9422,"ARG_OF_PERICENTER":85.439,"MEAN_ANOMALY":275.8687,"EPHEMERIS_TYPE":0,"CLASSIFICATION_TYPE":"U","NORAD_CAT_ID":40975,"ELEMENT_SET_NO":999,"REV_AT_EPOCH":10324,"BSTAR":0.0005593869,"MEAN_MOTION_DOT":7.987e-5,"MEAN_MOTION_DDOT":0},{"OBJECT_NAME":"PROPCUBE 1 (FLORA)","OBJECT_ID":"2015-058N","EPOCH":"2026-04-05T04:33:15.355584","MEAN_MOTION":14.88830853,"ECCENTRICITY":0.01292832,"INCLINATION":64.7743,"RA_OF_ASC_NODE":161.3998,"ARG_OF_PERICENTER":89.5718,"MEAN_ANOMALY":272.0206,"EPHEMERIS_TYPE":0,"CLASSIFICATION_TYPE":"U","NORAD_CAT_ID":40976,"ELEMENT_SET_NO":999,"REV_AT_EPOCH":10539,"BSTAR":0.00031715782,"MEAN_MOTION_DOT":3.31e-5,"MEAN_MOTION_DDOT":0},{"OBJECT_NAME":"SINOD-D 3","OBJECT_ID":"2015-058P","EPOCH":"2026-04-05T04:44:40.416000","MEAN_MOTION":14.93464807,"ECCENTRICITY":0.01176835,"INCLINATION":64.7714,"RA_OF_ASC_NODE":143.6403,"ARG_OF_PERICENTER":87.291,"MEAN_ANOMALY":274.1667,"EPHEMERIS_TYPE":0,"CLASSIFICATION_TYPE":"U","NORAD_CAT_ID":40977,"ELEMENT_SET_NO":999,"REV_AT_EPOCH":10385,"BSTAR":0.00036865099,"MEAN_MOTION_DOT":4.28e-5,"MEAN_MOTION_DDOT":0},{"OBJECT_NAME":"HORYU-4","OBJECT_ID":"2016-012D","EPOCH":"2026-04-05T02:46:27.247296","MEAN_MOTION":15.68698457,"ECCENTRICITY":0.00061147,"INCLINATION":30.9904,"RA_OF_ASC_NODE":242.4599,"ARG_OF_PERICENTER":40.4002,"MEAN_ANOMALY":319.7106,"EPHEMERIS_TYPE":0,"CLASSIFICATION_TYPE":"U","NORAD_CAT_ID":41340,"ELEMENT_SET_NO":999,"REV_AT_EPOCH":55925,"BSTAR":0.0011041112,"MEAN_MOTION_DOT":0.00133296,"MEAN_MOTION_DDOT":0},{"OBJECT_NAME":"RAVAN","OBJECT_ID":"2016-067B","EPOCH":"2026-04-05T05:21:31.080960","MEAN_MOTION":15.4859906,"ECCENTRICITY":0.00042558,"INCLINATION":97.9983,"RA_OF_ASC_NODE":336.7232,"ARG_OF_PERICENTER":246.0501,"MEAN_ANOMALY":114.0302,"EPHEMERIS_TYPE":0,"CLASSIFICATION_TYPE":"U","NORAD_CAT_ID":41849,"ELEMENT_SET_NO":999,"REV_AT_EPOCH":51638,"BSTAR":0.00096408988,"MEAN_MOTION_DOT":0.00051625,"MEAN_MOTION_DDOT":0},{"OBJECT_NAME":"CELTEE 1","OBJECT_ID":"2016-067C","EPOCH":"2026-04-05T00:51:55.704960","MEAN_MOTION":15.18967047,"ECCENTRICITY":0.00022383,"INCLINATION":98.077,"RA_OF_ASC_NODE":316.6127,"ARG_OF_PERICENTER":107.2675,"MEAN_ANOMALY":252.8803,"EPHEMERIS_TYPE":0,"CLASSIFICATION_TYPE":"U","NORAD_CAT_ID":41850,"ELEMENT_SET_NO":999,"REV_AT_EPOCH":51477,"BSTAR":0.00039820312,"MEAN_MOTION_DOT":8.251e-5,"MEAN_MOTION_DDOT":0},{"OBJECT_NAME":"OPTICUBE 04","OBJECT_ID":"2016-067D","EPOCH":"2026-04-05T07:04:17.335776","MEAN_MOTION":15.09357746,"ECCENTRICITY":0.00158735,"INCLINATION":98.0781,"RA_OF_ASC_NODE":303.7558,"ARG_OF_PERICENTER":9.9269,"MEAN_ANOMALY":350.2269,"EPHEMERIS_TYPE":0,"CLASSIFICATION_TYPE":"U","NORAD_CAT_ID":41851,"ELEMENT_SET_NO":999,"REV_AT_EPOCH":51417,"BSTAR":0.00020964667,"MEAN_MOTION_DOT":3.284e-5,"MEAN_MOTION_DDOT":0},{"OBJECT_NAME":"AEROCUBE 8D","OBJECT_ID":"2016-067E","EPOCH":"2026-04-05T03:18:26.714880","MEAN_MOTION":15.23393442,"ECCENTRICITY":0.00043427,"INCLINATION":98.0783,"RA_OF_ASC_NODE":319.7684,"ARG_OF_PERICENTER":46.7783,"MEAN_ANOMALY":313.3814,"EPHEMERIS_TYPE":0,"CLASSIFICATION_TYPE":"U","NORAD_CAT_ID":41852,"ELEMENT_SET_NO":999,"REV_AT_EPOCH":51494,"BSTAR":0.00043105533,"MEAN_MOTION_DOT":0.00010182,"MEAN_MOTION_DDOT":0},{"OBJECT_NAME":"AEROCUBE 8C","OBJECT_ID":"2016-067F","EPOCH":"2026-04-05T04:10:51.171168","MEAN_MOTION":15.23625388,"ECCENTRICITY":0.0004403,"INCLINATION":98.0654,"RA_OF_ASC_NODE":317.1311,"ARG_OF_PERICENTER":326.2089,"MEAN_ANOMALY":33.8865,"EPHEMERIS_TYPE":0,"CLASSIFICATION_TYPE":"U","NORAD_CAT_ID":41853,"ELEMENT_SET_NO":999,"REV_AT_EPOCH":51494,"BSTAR":0.00045286754,"MEAN_MOTION_DOT":0.00010777,"MEAN_MOTION_DDOT":0},{"OBJECT_NAME":"CORVUS BC2","OBJECT_ID":"2017-042X","EPOCH":"2026-04-05T04:14:36.316608","MEAN_MOTION":15.05842703,"ECCENTRICITY":0.00132339,"INCLINATION":97.3995,"RA_OF_ASC_NODE":259.4197,"ARG_OF_PERICENTER":10.0688,"MEAN_ANOMALY":350.0802,"EPHEMERIS_TYPE":0,"CLASSIFICATION_TYPE":"U","NORAD_CAT_ID":42846,"ELEMENT_SET_NO":999,"REV_AT_EPOCH":47607,"BSTAR":0.00036355806,"MEAN_MOTION_DOT":5.228e-5,"MEAN_MOTION_DDOT":0},{"OBJECT_NAME":"CORVUS BC1","OBJECT_ID":"2017-042Y","EPOCH":"2026-04-04T23:31:50.591424","MEAN_MOTION":15.06026567,"ECCENTRICITY":0.00113769,"INCLINATION":97.4029,"RA_OF_ASC_NODE":259.9962,"ARG_OF_PERICENTER":347.7669,"MEAN_ANOMALY":12.328,"EPHEMERIS_TYPE":0,"CLASSIFICATION_TYPE":"U","NORAD_CAT_ID":42847,"ELEMENT_SET_NO":999,"REV_AT_EPOCH":47607,"BSTAR":0.00030629619,"MEAN_MOTION_DOT":4.414e-5,"MEAN_MOTION_DDOT":0},{"OBJECT_NAME":"MAKERSAT 0","OBJECT_ID":"2017-073D","EPOCH":"2026-04-04T15:05:31.752672","MEAN_MOTION":15.29050188,"ECCENTRICITY":0.011433,"INCLINATION":97.4725,"RA_OF_ASC_NODE":336.7098,"ARG_OF_PERICENTER":173.2922,"MEAN_ANOMALY":186.9882,"EPHEMERIS_TYPE":0,"CLASSIFICATION_TYPE":"U","NORAD_CAT_ID":43016,"ELEMENT_SET_NO":999,"REV_AT_EPOCH":45521,"BSTAR":0.00089224,"MEAN_MOTION_DOT":0.00030693,"MEAN_MOTION_DDOT":0},{"OBJECT_NAME":"SIRION PATHFINDER-2","OBJECT_ID":"2018-099B","EPOCH":"2026-04-05T02:14:59.977536","MEAN_MOTION":15.13880959,"ECCENTRICITY":0.00088416,"INCLINATION":97.433,"RA_OF_ASC_NODE":145.8955,"ARG_OF_PERICENTER":183.3302,"MEAN_ANOMALY":176.7873,"EPHEMERIS_TYPE":0,"CLASSIFICATION_TYPE":"U","NORAD_CAT_ID":43759,"ELEMENT_SET_NO":999,"REV_AT_EPOCH":40156,"BSTAR":0.00044289773,"MEAN_MOTION_DOT":7.959e-5,"MEAN_MOTION_DDOT":0},{"OBJECT_NAME":"CORVUS BC4","OBJECT_ID":"2018-099K","EPOCH":"2026-04-04T14:32:27.950784","MEAN_MOTION":15.11906352,"ECCENTRICITY":0.000694,"INCLINATION":97.4148,"RA_OF_ASC_NODE":139.7411,"ARG_OF_PERICENTER":251.0597,"MEAN_ANOMALY":108.9882,"EPHEMERIS_TYPE":0,"CLASSIFICATION_TYPE":"U","NORAD_CAT_ID":43767,"ELEMENT_SET_NO":999,"REV_AT_EPOCH":40128,"BSTAR":0.00047045,"MEAN_MOTION_DOT":8.0e-5,"MEAN_MOTION_DDOT":0},{"OBJECT_NAME":"M2 PATHFINDER","OBJECT_ID":"2020-037E","EPOCH":"2026-04-05T06:53:05.010720","MEAN_MOTION":15.04354009,"ECCENTRICITY":0.00123128,"INCLINATION":97.8155,"RA_OF_ASC_NODE":285.7031,"ARG_OF_PERICENTER":43.8552,"MEAN_ANOMALY":316.3648,"EPHEMERIS_TYPE":0,"CLASSIFICATION_TYPE":"U","NORAD_CAT_ID":45727,"ELEMENT_SET_NO":999,"REV_AT_EPOCH":31453,"BSTAR":0.00028703606,"MEAN_MOTION_DOT":3.946e-5,"MEAN_MOTION_DDOT":0},{"OBJECT_NAME":"NETSAT-4","OBJECT_ID":"2020-068U","EPOCH":"2026-04-04T13:35:47.696064","MEAN_MOTION":15.41478677,"ECCENTRICITY":0.0004748,"INCLINATION":97.8634,"RA_OF_ASC_NODE":97.0289,"ARG_OF_PERICENTER":202.4936,"MEAN_ANOMALY":157.6102,"EPHEMERIS_TYPE":0,"CLASSIFICATION_TYPE":"U","NORAD_CAT_ID":46504,"ELEMENT_SET_NO":999,"REV_AT_EPOCH":30442,"BSTAR":0.00058947,"MEAN_MOTION_DOT":0.00024658,"MEAN_MOTION_DDOT":0}]
